LEMUR-2-FINNIAN         
1 66782U 25276DX  26169.94763794  .00005477  00000+0  44006-3 0  9993
2 66782  97.5289 240.8832 0008894  84.2410 275.9828 15.00396563 20265
LEMUR-2-STARLIGHT       
1 66783U 25276DY  26169.70529125  .00004196  00000+0  34970-3 0  9992
2 66783  97.5254 240.2924 0015111 123.8840 236.3823 14.99053840 30421
LEMUR-2-TARTIFLETTE     
1 66784U 25276DZ  26169.43674262  .00003785  00000+0  31579-3 0  9991
2 66784  97.5263 240.0399 0014066 130.8813 229.3631 14.99079284 30386
LEMUR-2-VUKASIN         
1 66785U 25276EA  26169.76277766  .00004145  00000+0  33450-3 0  9997
2 66785  97.5302 240.6552 0005990 120.8957 239.2857 15.00380830 30387
LEMUR-2-HOTSPUR-TOM     
1 66786U 25276EB  26169.69641857  .00004506  00000+0  37592-3 0  9998
2 66786  97.5258 240.2719 0015411 123.2453 237.0249 14.98975134 30357
LEMUR-2-MYRA            
1 66787U 25276EC  26169.72768714  .00006515  00000+0  52324-3 0  9997
2 66787  97.5213 240.5583 0016764 136.4998 223.7552 15.00265154 30440
LEMUR-2 FIKRETDENGIZ    
1 67363U 26004A   26169.94955160  .00003314  00000+0  36366-3 0  9997
2 67363  97.8018 168.4802 0010259 128.1714 232.0428 14.88335738 23545
TWILIGHT-1 OBJECT B     
1 67364U 26004B   26169.97474661  .00001398  00000+0  15931-3 0  9998
2 67364  97.8061 168.5196 0010065 119.3698 240.8525 14.87707424 23559
LEMUR-2-MARIO-SOUSA     
1 67365U 26004C   26169.93294610  .00003628  00000+0  39576-3 0  9998
2 67365  97.7989 168.4601 0009846 128.8252 231.3845 14.88524407 23553
LEMUR-2-SONNENBLUME     
1 67367U 26004E   26169.93157238  .00002259  00000+0  24994-3 0  9991
2 67367  97.7983 168.4428 0009293 130.2245 229.9786 14.88322432 23552
LEMUR-2-WOBLER          
1 67368U 26004F   26169.92482274  .00002777  00000+0  30435-3 0  9994
2 67368  97.8038 168.5601 0009721 120.9249 239.2925 14.88525492 23555
LEMUR-2-GRAM-E-SUE      
1 67370U 26004H   26169.71385175  .00001594  00000+0  17743-3 0  9999
2 67370  97.7971 168.2437 0008297 131.5026 228.6904 14.88476289 23520
LEMUR-2-KATIE           
1 67387U 26004AA  26169.90096828  .00002376  00000+0  25173-3 0  9997
2 67387  97.8035 168.8928 0004846  89.5222 270.6551 14.90057114 23561
LEMUR-2-HCS-BAZUS       
1 67388U 26004AB  26169.90000003  .00003785  00000+0  39733-3 0  9990
2 67388  97.8024 168.8725 0004394  87.1175 273.0546 14.90084658 23568
