OBJECT_NAME,OBJECT_ID,EPOCH,MEAN_MOTION,ECCENTRICITY,INCLINATION,RA_OF_ASC_NODE,ARG_OF_PERICENTER,MEAN_ANOMALY,EPHEMERIS_TYPE,CLASSIFICATION_TYPE,NORAD_CAT_ID,ELEMENT_SET_NO,REV_AT_EPOCH,BSTAR,MEAN_MOTION_DOT,MEAN_MOTION_DDOT
LEMUR-2-FINNIAN,2025-276DX,2026-06-18T22:44:35.918016,15.00396563,.00088945,97.5289,240.8832,84.2410,275.9828,0,U,66782,999,2026,.44006226E-3,.5477E-4,0
LEMUR-2-STARLIGHT,2025-276DY,2026-06-18T16:55:37.164000,14.99053840,.00151114,97.5254,240.2924,123.8840,236.3823,0,U,66783,999,3042,.3496999E-3,.4196E-4,0
LEMUR-2-TARTIFLETTE,2025-276DZ,2026-06-18T10:28:54.562368,14.99079284,.0014066,97.5263,240.0399,130.8813,229.3631,0,U,66784,999,3038,.31579E-3,.3785E-4,0
LEMUR-2-VUKASIN,2025-276EA,2026-06-18T18:18:23.989824,15.00380830,.00059909,97.5302,240.6552,120.8957,239.2857,0,U,66785,999,3038,.33449682E-3,.4145E-4,0
LEMUR-2-HOTSPUR-TOM,2025-276EB,2026-06-18T16:42:50.564448,14.98975134,.00154114,97.5258,240.2719,123.2453,237.0249,0,U,66786,999,3035,.37591973E-3,.4506E-4,0
LEMUR-2-MYRA,2025-276EC,2026-06-18T17:27:52.168896,15.00265154,.00167645,97.5213,240.5583,136.4998,223.7552,0,U,66787,999,3044,.52323827E-3,.6515E-4,0
LEMUR-2 FIKRETDENGIZ,2026-004A,2026-06-18T22:47:21.258240,14.88335738,.00102593,97.8018,168.4802,128.1714,232.0428,0,U,67363,999,2354,.36365973E-3,.3314E-4,0
TWILIGHT-1 OBJECT B,2026-004B,2026-06-18T23:23:38.107104,14.87707424,.00100659,97.8061,168.5196,119.3698,240.8525,0,U,67364,999,2355,.1593123E-3,.1398E-4,0
LEMUR-2-MARIO-SOUSA,2026-004C,2026-06-18T22:23:26.543040,14.88524407,.00098464,97.7989,168.4601,128.8252,231.3845,0,U,67365,999,2355,.39576479E-3,.3628E-4,0
LEMUR-2-SONNENBLUME,2026-004E,2026-06-18T22:21:27.853632,14.88322432,.00092934,97.7983,168.4428,130.2245,229.9786,0,U,67367,999,2355,.24993519E-3,.2259E-4,0
LEMUR-2-WOBLER,2026-004F,2026-06-18T22:11:44.684736,14.88525492,.00097218,97.8038,168.5601,120.9249,239.2925,0,U,67368,999,2355,.30435157E-3,.2777E-4,0
LEMUR-2-GRAM-E-SUE,2026-004H,2026-06-18T17:07:56.791200,14.88476289,.00082975,97.7971,168.2437,131.5026,228.6904,0,U,67370,999,2352,.17743209E-3,.1594E-4,0
LEMUR-2-KATIE,2026-004AA,2026-06-18T21:37:23.659392,14.90057114,.00048461,97.8035,168.8928,89.5222,270.6551,0,U,67387,999,2356,.25173007E-3,.2376E-4,0
LEMUR-2-HCS-BAZUS,2026-004AB,2026-06-18T21:36:00.002592,14.90084658,.00043948,97.8024,168.8725,87.1175,273.0546,0,U,67388,999,2356,.39732971E-3,.3785E-4,0
